{
  "norad_id": 62813,
  "name": "STARLINK-32855",
  "history": [
    {
      "epoch": "2026-03-28T18:27:31.593024Z",
      "apogee_km": 476.07392623075884,
      "perigee_km": 474.4776293265586,
      "latitude_deg": 7.901162842926485e-05,
      "longitude_deg": 117.6155104095322,
      "height_km": 476.0034670621232,
      "semi_major_axis_km": 6853.412777778658,
      "eccentricity": 0.00011646,
      "inclination_deg": 53.1579,
      "raan_deg": 220.6819,
      "arg_perigee_deg": 77.6784,
      "mean_anomaly_deg": 282.4348,
      "mean_motion_rev_day": 15.30179668
    },
    {
      "epoch": "2026-03-29T02:17:48.074784Z",
      "apogee_km": 476.19231660182686,
      "perigee_km": 474.3747894711614,
      "latitude_deg": -4.0128317833080797e-05,
      "longitude_deg": -1.7932439939037859,
      "height_km": 475.99906061067674,
      "semi_major_axis_km": 6853.420553036494,
      "eccentricity": 0.0001326,
      "inclination_deg": 53.1583,
      "raan_deg": 219.1638,
      "arg_perigee_deg": 78.4249,
      "mean_anomaly_deg": 281.69,
      "mean_motion_rev_day": 15.30177064
    }
  ]
}